{"type": "FeatureCollection", "features": [ {"type": "Feature", "properties": {"norad_id": 40664, "name": "SKY MEXICO-1", "group": "intelsat", "lat": -0.013336497663558704, "lon": -142.898282186833, "alt_km": 35779.25792081638, "timestamp": "2025-12-07T14:37:04.877253+00:00", "meta": {"OBJECT_NAME": "SKY MEXICO-1", "OBJECT_ID": "2015-026B", "EPOCH": "2025-12-06T21:51:02.150784", "MEAN_MOTION": 1.00271227, "ECCENTRICITY": 0.00027824, "INCLINATION": 0.0142, "RA_OF_ASC_NODE": 35.1874, "ARG_OF_PERICENTER": 235.3287, "MEAN_ANOMALY": 54.4203, "EPHEMERIS_TYPE": 0, "CLASSIFICATION_TYPE": "U", "NORAD_CAT_ID": 40664, "ELEMENT_SET_NO": 999, "REV_AT_EPOCH": 3852, "BSTAR": 0, "MEAN_MOTION_DOT": -2.29e-06, "MEAN_MOTION_DDOT": 0}, "tle": {"line1": "1 40664U 15026B   25340.91044156 -.00000229  00000+0  00000+0 0  9990", "line2": "2 40664   0.0142  35.1874 0002782 235.3287  54.4203  1.00271227 38524"}}, "geometry": {"type": "Point", "coordinates": [-142.898282186833, -0.013336497663558704]}}, {"type": "Feature", "properties": {"norad_id": 40874, "name": "INTELSAT 34 (IS-34)", "group": "intelsat", "lat": -0.034233745434935126, "lon": -119.60619582866182, "alt_km": 35785.10872754655, "timestamp": "2025-12-07T14:37:04.877265+00:00", "meta": {"OBJECT_NAME": "INTELSAT 34 (IS-34)", "OBJECT_ID": "2015-039A", "EPOCH": "2025-12-06T18:32:13.695072", "MEAN_MOTION": 1.00269269, "ECCENTRICITY": 7.973e-05, "INCLINATION": 0.0124, "RA_OF_ASC_NODE": 320.2324, "ARG_OF_PERICENTER": 222.0969, "MEAN_ANOMALY": 116.0343, "EPHEMERIS_TYPE": 0, "CLASSIFICATION_TYPE": "U", "NORAD_CAT_ID": 40874, "ELEMENT_SET_NO": 999, "REV_AT_EPOCH": 3769, "BSTAR": 0, "MEAN_MOTION_DOT": -2.79e-06, "MEAN_MOTION_DDOT": 0}, "tle": {"line1": "1 40874U 15039A   25340.77238073 -.00000279  00000+0  00000+0 0  9999", "line2": "2 40874   0.0124 320.2324 0000797 222.0969 116.0343  1.00269269 37699"}}, "geometry": {"type": "Point", "coordinates": [-119.60619582866182, -0.034233745434935126]}}, {"type": "Feature", "properties": {"norad_id": 41581, "name": "INTELSAT 31 (IS-31)", "group": "intelsat", "lat": -0.02640404597183242, "lon": -159.1767757450215, "alt_km": 35778.13780001729, "timestamp": "2025-12-07T14:37:04.877277+00:00", "meta": {"OBJECT_NAME": "INTELSAT 31 (IS-31)", "OBJECT_ID": "2016-035A", "EPOCH": "2025-12-06T21:46:25.093632", "MEAN_MOTION": 1.00269437, "ECCENTRICITY": 0.00021377, "INCLINATION": 0.0194, "RA_OF_ASC_NODE": 271.4012, "ARG_OF_PERICENTER": 305.9286, "MEAN_ANOMALY": 90.1564, "EPHEMERIS_TYPE": 0, "CLASSIFICATION_TYPE": "U", "NORAD_CAT_ID": 41581, "ELEMENT_SET_NO": 999, "REV_AT_EPOCH": 3475, "BSTAR": 0, "MEAN_MOTION_DOT": -1.45e-06, "MEAN_MOTION_DDOT": 0}, "tle": {"line1": "1 41581U 16035A   25340.90723488 -.00000145  00000+0  00000+0 0  9998", "line2": "2 41581   0.0194 271.4012 0002137 305.9286  90.1564  1.00269437 34754"}}, "geometry": {"type": "Point", "coordinates": [-159.1767757450215, -0.02640404597183242]}}, {"type": "Feature", "properties": {"norad_id": 41747, "name": "INTELSAT 36 (IS-36)", "group": "intelsat", "lat": 0.008289613284686586, "lon": 4.401184557505669, "alt_km": 35782.33602093378, "timestamp": "2025-12-07T14:37:04.877289+00:00", "meta": {"OBJECT_NAME": "INTELSAT 36 (IS-36)", "OBJECT_ID": "2016-053A", "EPOCH": "2025-12-06T10:33:59.887008", "MEAN_MOTION": 1.00270069, "ECCENTRICITY": 0.00015206, "INCLINATION": 0.0114, "RA_OF_ASC_NODE": 358.7384, "ARG_OF_PERICENTER": 316.7777, "MEAN_ANOMALY": 346.9633, "EPHEMERIS_TYPE": 0, "CLASSIFICATION_TYPE": "U", "NORAD_CAT_ID": 41747, "ELEMENT_SET_NO": 999, "REV_AT_EPOCH": 3401, "BSTAR": 0, "MEAN_MOTION_DOT": -1.7e-07, "MEAN_MOTION_DDOT": 0}, "tle": {"line1": "1 41747U 16053A   25340.44027647 -.00000017  00000+0  00000+0 0  9993", "line2": "2 41747   0.0114 358.7384 0001520 316.7777 346.9633  1.00270069 34012"}}, "geometry": {"type": "Point", "coordinates": [4.401184557505669, 0.008289613284686586]}}, {"type": "Feature", "properties": {"norad_id": 41945, "name": "INTELSAT 32E (IS-32E)", "group": "intelsat", "lat": -0.020530874732339405, "lon": -107.29145313077586, "alt_km": 35786.121574461264, "timestamp": "2025-12-07T14:37:04.877301+00:00", "meta": {"OBJECT_NAME": "INTELSAT 32E (IS-32E)", "OBJECT_ID": "2017-007B", "EPOCH": "2025-12-06T18:35:43.360224", "MEAN_MOTION": 1.00270174, "ECCENTRICITY": 1.695e-05, "INCLINATION": 0.0314, "RA_OF_ASC_NODE": 71.2859, "ARG_OF_PERICENTER": 226.9586, "MEAN_ANOMALY": 13.316, "EPHEMERIS_TYPE": 0, "CLASSIFICATION_TYPE": "U", "NORAD_CAT_ID": 41945, "ELEMENT_SET_NO": 999, "REV_AT_EPOCH": 3229, "BSTAR": 0, "MEAN_MOTION_DOT": -2.63e-06, "MEAN_MOTION_DDOT": 0}, "tle": {"line1": "1 41945U 17007B   25340.77480741 -.00000263  00000+0  00000+0 0  9990", "line2": "2 41945   0.0314  71.2859 0000169 226.9586  13.3160  1.00270174 32291"}}, "geometry": {"type": "Point", "coordinates": [-107.29145313077586, -0.020530874732339405]}}, {"type": "Feature", "properties": {"norad_id": 42818, "name": "INTELSAT 35E (IS-35E)", "group": "intelsat", "lat": -0.04052581142554958, "lon": -98.59599753530179, "alt_km": 35776.45618557891, "timestamp": "2025-12-07T14:37:04.877313+00:00", "meta": {"OBJECT_NAME": "INTELSAT 35E (IS-35E)", "OBJECT_ID": "2017-041A", "EPOCH": "2025-12-06T22:03:45.931104", "MEAN_MOTION": 1.00269984, "ECCENTRICITY": 0.0002407, "INCLINATION": 0.0181, "RA_OF_ASC_NODE": 2.8102, "ARG_OF_PERICENTER": 257.3123, "MEAN_ANOMALY": 112.2841, "EPHEMERIS_TYPE": 0, "CLASSIFICATION_TYPE": "U", "NORAD_CAT_ID": 42818, "ELEMENT_SET_NO": 999, "REV_AT_EPOCH": 3088, "BSTAR": 0, "MEAN_MOTION_DOT": -2.32e-06, "MEAN_MOTION_DDOT": 0}, "tle": {"line1": "1 42818U 17041A   25340.91928161 -.00000232  00000+0  00000+0 0  9993", "line2": "2 42818   0.0181   2.8102 0002407 257.3123 112.2841  1.00269984 30881"}}, "geometry": {"type": "Point", "coordinates": [-98.59599753530179, -0.04052581142554958]}}, {"type": "Feature", "properties": {"norad_id": 42950, "name": "INTELSAT 37E (IS-37E)", "group": "intelsat", "lat": -0.03755860078381687, "lon": -82.08890458805746, "alt_km": 35773.11193336631, "timestamp": "2025-12-07T14:37:04.877324+00:00", "meta": {"OBJECT_NAME": "INTELSAT 37E (IS-37E)", "OBJECT_ID": "2017-059A", "EPOCH": "2025-12-06T22:08:22.989120", "MEAN_MOTION": 1.00270709, "ECCENTRICITY": 0.00034731, "INCLINATION": 0.0171, "RA_OF_ASC_NODE": 348.0032, "ARG_OF_PERICENTER": 264.4933, "MEAN_ANOMALY": 137.5564, "EPHEMERIS_TYPE": 0, "CLASSIFICATION_TYPE": "U", "NORAD_CAT_ID": 42950, "ELEMENT_SET_NO": 999, "REV_AT_EPOCH": 3013, "BSTAR": 0, "MEAN_MOTION_DOT": -1.35e-06, "MEAN_MOTION_DDOT": 0}, "tle": {"line1": "1 42950U 17059A   25340.92248830 -.00000135  00000+0  00000+0 0  9990", "line2": "2 42950   0.0171 348.0032 0003473 264.4933 137.5564  1.00270709 30133"}}, "geometry": {"type": "Point", "coordinates": [-82.08890458805746, -0.03755860078381687]}}, {"type": "Feature", "properties": {"norad_id": 43632, "name": "AZERSPACE 2 (IS-38)", "group": "intelsat", "lat": -0.0019122417233261467, "lon": -18.977705590275853, "alt_km": 35785.5160187512, "timestamp": "2025-12-07T14:37:04.877337+00:00", "meta": {"OBJECT_NAME": "AZERSPACE 2 (IS-38)", "OBJECT_ID": "2018-074A", "EPOCH": "2025-12-06T05:46:38.731584", "MEAN_MOTION": 1.0027024, "ECCENTRICITY": 0.00016364, "INCLINATION": 0.0015, "RA_OF_ASC_NODE": 351.9319, "ARG_OF_PERICENTER": 265.925, "MEAN_ANOMALY": 309.2023, "EPHEMERIS_TYPE": 0, "CLASSIFICATION_TYPE": "U", "NORAD_CAT_ID": 43632, "ELEMENT_SET_NO": 999, "REV_AT_EPOCH": 2651, "BSTAR": 0, "MEAN_MOTION_DOT": 1.45e-06, "MEAN_MOTION_DDOT": 0}, "tle": {"line1": "1 43632U 18074A   25340.24072606  .00000145  00000+0  00000+0 0  9997", "line2": "2 43632   0.0015 351.9319 0001636 265.9250 309.2023  1.00270240 26511"}}, "geometry": {"type": "Point", "coordinates": [-18.977705590275853, -0.0019122417233261467]}}, {"type": "Feature", "properties": {"norad_id": 43633, "name": "HORIZONS-3E", "group": "intelsat", "lat": 0.0011318205696612077, "lon": 104.90515840986815, "alt_km": 35791.781136754376, "timestamp": "2025-12-07T14:37:04.877348+00:00", "meta": {"OBJECT_NAME": "HORIZONS-3E", "OBJECT_ID": "2018-074B", "EPOCH": "2025-12-06T04:02:38.488128", "MEAN_MOTION": 1.00269385, "ECCENTRICITY": 0.00012044, "INCLINATION": 0.0412, "RA_OF_ASC_NODE": 188.1076, "ARG_OF_PERICENTER": 91.4759, "MEAN_ANOMALY": 25.3122, "EPHEMERIS_TYPE": 0, "CLASSIFICATION_TYPE": "U", "NORAD_CAT_ID": 43633, "ELEMENT_SET_NO": 999, "REV_AT_EPOCH": 2640, "BSTAR": 0, "MEAN_MOTION_DOT": -2.2e-07, "MEAN_MOTION_DDOT": 0}, "tle": {"line1": "1 43633U 18074B   25340.16850102 -.00000022  00000+0  00000+0 0  9999", "line2": "2 43633   0.0412 188.1076 0001204  91.4759  25.3122  1.00269385 26402"}}, "geometry": {"type": "Point", "coordinates": [104.90515840986815, 0.0011318205696612077]}}, {"type": "Feature", "properties": {"norad_id": 44333, "name": "AT&T T-16", "group": "intelsat", "lat": 0.009593589485027414, "lon": -164.96378924675244, "alt_km": 35783.58583394656, "timestamp": "2025-12-07T14:37:04.877360+00:00", "meta": {"OBJECT_NAME": "AT&T T-16", "OBJECT_ID": "2019-034A", "EPOCH": "2025-12-05T21:46:40.325088", "MEAN_MOTION": 1.00271318, "ECCENTRICITY": 6.937e-05, "INCLINATION": 0.0289, "RA_OF_ASC_NODE": 66.1436, "ARG_OF_PERICENTER": 104.688, "MEAN_ANOMALY": 129.9319, "EPHEMERIS_TYPE": 0, "CLASSIFICATION_TYPE": "U", "NORAD_CAT_ID": 44333, "ELEMENT_SET_NO": 999, "REV_AT_EPOCH": 2369, "BSTAR": 0, "MEAN_MOTION_DOT": -1.06e-06, "MEAN_MOTION_DDOT": 0}, "tle": {"line1": "1 44333U 19034A   25339.90741117 -.00000106  00000+0  00000+0 0  9992", "line2": "2 44333   0.0289  66.1436 0000693 104.6880 129.9319  1.00271318 23696"}}, "geometry": {"type": "Point", "coordinates": [-164.96378924675244, 0.009593589485027414]}}]}